{"type": "FeatureCollection", "features": [{"type": "Feature", "properties": {"norad_id": 24946, "name": "IRIDIUM 33", "group": "iridium-33-debris", "lat": 46.65188123108213, "lon": 65.92407379303133, "alt_km": 772.7079039327919, "timestamp": "2025-12-27T08:36:18.768601+00:00", "meta": {"OBJECT_NAME": "IRIDIUM 33", "OBJECT_ID": "1997-051C", "EPOCH": "2025-12-27T03:22:02.338176", "MEAN_MOTION": 14.35047353, "ECCENTRICITY": 0.0008713, "INCLINATION": 86.3856, "RA_OF_ASC_NODE": 62.1762, "ARG_OF_PERICENTER": 154.5165, "MEAN_ANOMALY": 205.6463, "EPHEMERIS_TYPE": 0, "CLASSIFICATION_TYPE": "U", "NORAD_CAT_ID": 24946, "ELEMENT_SET_NO": 999, "REV_AT_EPOCH": 48041, "BSTAR": 0.00012488, "MEAN_MOTION_DOT": 3.76e-06, "MEAN_MOTION_DDOT": 0}, "tle": {"line1": "1 24946U 97051C   25361.14030484  .00000376  00000+0  12488-3 0  9999", "line2": "2 24946  86.3856  62.1762 0008713 154.5165 205.6463 14.35047353480411"}}, "geometry": {"type": "Point", "coordinates": [65.92407379303133, 46.65188123108213]}}, {"type": "Feature", "properties": {"norad_id": 33773, "name": "IRIDIUM 33 DEB", "group": "iridium-33-debris", "lat": 75.86824965396048, "lon": 68.87628276518213, "alt_km": 732.164974272172, "timestamp": "2025-12-27T08:36:18.768646+00:00", "meta": {"OBJECT_NAME": "IRIDIUM 33 DEB", "OBJECT_ID": "1997-051L", "EPOCH": "2025-12-27T03:15:41.131872", "MEAN_MOTION": 14.43287196, "ECCENTRICITY": 0.0013363, "INCLINATION": 86.3995, "RA_OF_ASC_NODE": 54.4881, "ARG_OF_PERICENTER": 105.2608, "MEAN_ANOMALY": 255.0072, "EPHEMERIS_TYPE": 0, "CLASSIFICATION_TYPE": "U", "NORAD_CAT_ID": 33773, "ELEMENT_SET_NO": 999, "REV_AT_EPOCH": 88555, "BSTAR": 0.00032996, "MEAN_MOTION_DOT": 1.132e-05, "MEAN_MOTION_DDOT": 0}, "tle": {"line1": "1 33773U 97051L   25361.13589273  .00001132  00000+0  32996-3 0  9998", "line2": "2 33773  86.3995  54.4881 0013363 105.2608 255.0072 14.43287196885550"}}, "geometry": {"type": "Point", "coordinates": [68.87628276518213, 75.86824965396048]}}, {"type": "Feature", "properties": {"norad_id": 33775, "name": "IRIDIUM 33 DEB", "group": "iridium-33-debris", "lat": 65.5428200930501, "lon": 51.35171045348243, "alt_km": 739.533503345504, "timestamp": "2025-12-27T08:36:18.768664+00:00", "meta": {"OBJECT_NAME": "IRIDIUM 33 DEB", "OBJECT_ID": "1997-051N", "EPOCH": "2025-12-27T03:33:14.523264", "MEAN_MOTION": 14.41499559, "ECCENTRICITY": 0.0015398, "INCLINATION": 86.3623, "RA_OF_ASC_NODE": 43.4012, "ARG_OF_PERICENTER": 112.022, "MEAN_ANOMALY": 302.4506, "EPHEMERIS_TYPE": 0, "CLASSIFICATION_TYPE": "U", "NORAD_CAT_ID": 33775, "ELEMENT_SET_NO": 999, "REV_AT_EPOCH": 88348, "BSTAR": 0.00036781, "MEAN_MOTION_DOT": 1.215e-05, "MEAN_MOTION_DDOT": 0}, "tle": {"line1": "1 33775U 97051N   25361.14808476  .00001215  00000+0  36781-3 0  9998", "line2": "2 33775  86.3623  43.4012 0015398 112.0220 302.4506 14.41499559883485"}}, "geometry": {"type": "Point", "coordinates": [51.35171045348243, 65.5428200930501]}}, {"type": "Feature", "properties": {"norad_id": 33776, "name": "IRIDIUM 33 DEB", "group": "iridium-33-debris", "lat": 54.26664662024636, "lon": -110.37935543445207, "alt_km": 748.4405709702833, "timestamp": "2025-12-27T08:36:18.768677+00:00", "meta": {"OBJECT_NAME": "IRIDIUM 33 DEB", "OBJECT_ID": "1997-051P", "EPOCH": "2025-12-27T04:57:30.068064", "MEAN_MOTION": 14.38259865, "ECCENTRICITY": 0.0015921, "INCLINATION": 86.403, "RA_OF_ASC_NODE": 74.7003, "ARG_OF_PERICENTER": 144.8264, "MEAN_ANOMALY": 274.4731, "EPHEMERIS_TYPE": 0, "CLASSIFICATION_TYPE": "U", "NORAD_CAT_ID": 33776, "ELEMENT_SET_NO": 999, "REV_AT_EPOCH": 88290, "BSTAR": 0.00029106, "MEAN_MOTION_DOT": 9.05e-06, "MEAN_MOTION_DDOT": 0}, "tle": {"line1": "1 33776U 97051P   25361.20659801  .00000905  00000+0  29106-3 0  9990", "line2": "2 33776  86.4030  74.7003 0015921 144.8264 274.4731 14.38259865882903"}}, "geometry": {"type": "Point", "coordinates": [-110.37935543445207, 54.26664662024636]}}, {"type": "Feature", "properties": {"norad_id": 33777, "name": "IRIDIUM 33 DEB", "group": "iridium-33-debris", "lat": 71.20833706704576, "lon": -161.88724603136998, "alt_km": 699.4900261551402, "timestamp": "2025-12-27T08:36:18.768690+00:00", "meta": {"OBJECT_NAME": "IRIDIUM 33 DEB", "OBJECT_ID": "1997-051Q", "EPOCH": "2025-12-27T03:09:33.575904", "MEAN_MOTION": 14.55714011, "ECCENTRICITY": 0.0006547, "INCLINATION": 86.3776, "RA_OF_ASC_NODE": 28.9411, "ARG_OF_PERICENTER": 189.6871, "MEAN_ANOMALY": 170.4212, "EPHEMERIS_TYPE": 0, "CLASSIFICATION_TYPE": "U", "NORAD_CAT_ID": 33777, "ELEMENT_SET_NO": 999, "REV_AT_EPOCH": 88743, "BSTAR": 0.00095765, "MEAN_MOTION_DOT": 4.207e-05, "MEAN_MOTION_DDOT": 0}, "tle": {"line1": "1 33777U 97051Q   25361.13163861  .00004207  00000+0  95765-3 0  9992", "line2": "2 33777  86.3776  28.9411 0006547 189.6871 170.4212 14.55714011887439"}}, "geometry": {"type": "Point", "coordinates": [-161.88724603136998, 71.20833706704576]}}, {"type": "Feature", "properties": {"norad_id": 33850, "name": "IRIDIUM 33 DEB", "group": "iridium-33-debris", "lat": 81.67287244538026, "lon": 49.8181065028552, "alt_km": 736.1193134230853, "timestamp": "2025-12-27T08:36:18.768703+00:00", "meta": {"OBJECT_NAME": "IRIDIUM 33 DEB", "OBJECT_ID": "1997-051T", "EPOCH": "2025-12-27T03:33:49.339008", "MEAN_MOTION": 14.42184716, "ECCENTRICITY": 0.0013374, "INCLINATION": 86.3409, "RA_OF_ASC_NODE": 23.9831, "ARG_OF_PERICENTER": 118.3203, "MEAN_ANOMALY": 314.3735, "EPHEMERIS_TYPE": 0, "CLASSIFICATION_TYPE": "U", "NORAD_CAT_ID": 33850, "ELEMENT_SET_NO": 999, "REV_AT_EPOCH": 88360, "BSTAR": 0.00050244, "MEAN_MOTION_DOT": 1.675e-05, "MEAN_MOTION_DDOT": 0}, "tle": {"line1": "1 33850U 97051T   25361.14848772  .00001675  00000+0  50244-3 0  9995", "line2": "2 33850  86.3409  23.9831 0013374 118.3203 314.3735 14.42184716883602"}}, "geometry": {"type": "Point", "coordinates": [49.8181065028552, 81.67287244538026]}}, {"type": "Feature", "properties": {"norad_id": 33853, "name": "IRIDIUM 33 DEB", "group": "iridium-33-debris", "lat": 2.9037209743859806, "lon": -16.396298650942377, "alt_km": 1049.2280944956428, "timestamp": "2025-12-27T08:36:18.768716+00:00", "meta": {"OBJECT_NAME": "IRIDIUM 33 DEB", "OBJECT_ID": "1997-051W", "EPOCH": "2025-12-26T22:39:28.276128", "MEAN_MOTION": 13.99129868, "ECCENTRICITY": 0.0207854, "INCLINATION": 86, "RA_OF_ASC_NODE": 343.582, "ARG_OF_PERICENTER": 192.009, "MEAN_ANOMALY": 244.3161, "EPHEMERIS_TYPE": 0, "CLASSIFICATION_TYPE": "U", "NORAD_CAT_ID": 33853, "ELEMENT_SET_NO": 999, "REV_AT_EPOCH": 85544, "BSTAR": 0.0013824, "MEAN_MOTION_DOT": 2.427e-05, "MEAN_MOTION_DDOT": 0}, "tle": {"line1": "1 33853U 97051W   25360.94407727  .00002427  00000+0  13824-2 0  9994", "line2": "2 33853  86.0000 343.5820 0207854 192.0090 244.3161 13.99129868855443"}}, "geometry": {"type": "Point", "coordinates": [-16.396298650942377, 2.9037209743859806]}}, {"type": "Feature", "properties": {"norad_id": 33860, "name": "IRIDIUM 33 DEB", "group": "iridium-33-debris", "lat": -84.17406415769295, "lon": -120.92185262836907, "alt_km": 672.9588433441622, "timestamp": "2025-12-27T08:36:18.768730+00:00", "meta": {"OBJECT_NAME": "IRIDIUM 33 DEB", "OBJECT_ID": "1997-051AD", "EPOCH": "2025-12-27T02:46:19.604352", "MEAN_MOTION": 14.67545299, "ECCENTRICITY": 0.0005784, "INCLINATION": 86.3829, "RA_OF_ASC_NODE": 20.8728, "ARG_OF_PERICENTER": 299.7603, "MEAN_ANOMALY": 122.4813, "EPHEMERIS_TYPE": 0, "CLASSIFICATION_TYPE": "U", "NORAD_CAT_ID": 33860, "ELEMENT_SET_NO": 999, "REV_AT_EPOCH": 88933, "BSTAR": 0.0013976, "MEAN_MOTION_DOT": 7.951e-05, "MEAN_MOTION_DDOT": 0}, "tle": {"line1": "1 33860U 97051AD  25361.11550468  .00007951  00000+0  13976-2 0  9998", "line2": "2 33860  86.3829  20.8728 0005784 299.7603 122.4813 14.67545299889339"}}, "geometry": {"type": "Point", "coordinates": [-120.92185262836907, -84.17406415769295]}}, {"type": "Feature", "properties": {"norad_id": 33862, "name": "IRIDIUM 33 DEB", "group": "iridium-33-debris", "lat": 53.085271980651946, "lon": 35.87799650367526, "alt_km": 626.5428533421464, "timestamp": "2025-12-27T08:36:18.768742+00:00", "meta": {"OBJECT_NAME": "IRIDIUM 33 DEB", "OBJECT_ID": "1997-051AF", "EPOCH": "2025-12-27T02:04:57.805824", "MEAN_MOTION": 14.69713889, "ECCENTRICITY": 0.0051819, "INCLINATION": 86.4084, "RA_OF_ASC_NODE": 31.2018, "ARG_OF_PERICENTER": 20.9133, "MEAN_ANOMALY": 35.0712, "EPHEMERIS_TYPE": 0, "CLASSIFICATION_TYPE": "U", "NORAD_CAT_ID": 33862, "ELEMENT_SET_NO": 999, "REV_AT_EPOCH": 89034, "BSTAR": 0.0018027, "MEAN_MOTION_DOT": 0.00010991, "MEAN_MOTION_DDOT": 0}, "tle": {"line1": "1 33862U 97051AF  25361.08678016  .00010991  00000+0  18027-2 0  9996", "line2": "2 33862  86.4084  31.2018 0051819  20.9133  35.0712 14.69713889890349"}}, "geometry": {"type": "Point", "coordinates": [35.87799650367526, 53.085271980651946]}}, {"type": "Feature", "properties": {"norad_id": 33866, "name": "IRIDIUM 33 DEB", "group": "iridium-33-debris", "lat": -49.59090823648711, "lon": 82.49178824307607, "alt_km": 894.2004164992277, "timestamp": "2025-12-27T08:36:18.768753+00:00", "meta": {"OBJECT_NAME": "IRIDIUM 33 DEB", "OBJECT_ID": "1997-051AK", "EPOCH": "2025-12-26T16:41:52.800864", "MEAN_MOTION": 14.25317881, "ECCENTRICITY": 0.0115243, "INCLINATION": 86.2998, "RA_OF_ASC_NODE": 87.1316, "ARG_OF_PERICENTER": 117.1752, "MEAN_ANOMALY": 34.7291, "EPHEMERIS_TYPE": 0, "CLASSIFICATION_TYPE": "U", "NORAD_CAT_ID": 33866, "ELEMENT_SET_NO": 999, "REV_AT_EPOCH": 87009, "BSTAR": 0.00062512122, "MEAN_MOTION_DOT": 1.597e-05, "MEAN_MOTION_DDOT": 0}, "tle": {"line1": "1 33866U 97051AK  25360.69575001  .00001597  00000+0  62512-3 0  9997", "line2": "2 33866  86.2998  87.1316 0115243 117.1752  34.7291 14.25317881870096"}}, "geometry": {"type": "Point", "coordinates": [82.49178824307607, -49.59090823648711]}}]}